{"type": "FeatureCollection", "features": [{"type": "Feature", "properties": {"h3": "8844d97809fffff", "count": 1, "mean_rating": 4.8, "category": "Scenic spot"}, "geometry": {"type": "Polygon", "coordinates": [[[-81.83933036779202, 36.076075210236326], [-81.84491504014966, 36.07470702767146], [-81.84601040001867, 36.07043880473468], [-81.84152195420114, 36.067538934211136], [-81.83593798906593, 36.06890678195457], [-81.83484176257787, 36.07317483500334], [-81.83933036779202, 36.076075210236326]]]}}, {"type": "Feature", "properties": {"h3": "8844d97837fffff", "count": 1, "mean_rating": 4.8, "category": "State park"}, "geometry": {"type": "Polygon", "coordinates": [[[-81.81598523475284, 36.10579513087608], [-81.82157415571386, 36.10442726524454], [-81.8226722775323, 36.10015716197825], [-81.8181823458873, 36.09725509469691], [-81.81259413352322, 36.09862262565086], [-81.8114951442595, 36.102892558524104], [-81.81598523475284, 36.10579513087608]]]}}, {"type": "Feature", "properties": {"h3": "8844d979c1fffff", "count": 1, "mean_rating": 4.9, "category": "Scenic spot"}, "geometry": {"type": "Polygon", "coordinates": [[[-81.79582737309303, 36.10272389543792], [-81.80141664705337, 36.101357026082475], [-81.80251650360444, 36.09708726378465], [-81.79802795337682, 36.09418454156031], [-81.7924393883601, 36.09555107655427], [-81.79133866467974, 36.099820668094395], [-81.79582737309303, 36.10272389543792]]]}}, {"type": "Feature", "properties": {"h3": "8844d9783bfffff", "count": 2, "mean_rating": 4.8, "category": "Tourist attraction"}, "geometry": {"type": "Polygon", "coordinates": [[[-81.83275093504732, 36.101690872592314], [-81.83833879327449, 36.100322345693996], [-81.83943532130206, 36.0960524141891], [-81.83494485862386, 36.093151179615994], [-81.82935770851023, 36.09451937161835], [-81.82826031301344, 36.098789133050104], [-81.83275093504732, 36.101690872592314]]]}}, {"type": "Feature", "properties": {"h3": "8844d97807fffff", "count": 1, "mean_rating": 4.9, "category": "Hiking area"}, "geometry": {"type": "Polygon", "coordinates": [[[-81.82596547253092, 36.087348559996514], [-81.83155191466716, 36.08598070279262], [-81.83264872542958, 36.08171179544597], [-81.82815996099443, 36.078810915426374], [-81.82257422669947, 36.08017843792934], [-81.82147654905054, 36.08444717511317], [-81.82596547253092, 36.087348559996514]]]}}, {"type": "Feature", "properties": {"h3": "8844d97985fffff", "count": 1, "mean_rating": 4.8, "category": "Scenic spot"}, "geometry": {"type": "Polygon", "coordinates": [[[-81.77575030751593, 36.11963485435076], [-81.78134223740084, 36.11826847719199], [-81.7824442754491, 36.11399769108924], [-81.77795525119414, 36.11109345327649], [-81.77236403118276, 36.112459496256115], [-81.77126112560532, 36.116730111188], [-81.77575030751593, 36.11963485435076]]]}}, {"type": "Feature", "properties": {"h3": "8844d96a45fffff", "count": 1, "mean_rating": 4.7, "category": "Hiking area"}, "geometry": {"type": "Polygon", "coordinates": [[[-81.80948192377765, 36.151417179321285], [-81.81507634132836, 36.15004846595688], [-81.81617608037212, 36.145775290321694], [-81.81168227093232, 36.14287099863805], [-81.80608856345607, 36.144239377116655], [-81.8049879553976, 36.148512382125006], [-81.80948192377765, 36.151417179321285]]]}}, {"type": "Feature", "properties": {"h3": "8844d97a23fffff", "count": 1, "mean_rating": 4.8, "category": "Hiking area"}, "geometry": {"type": "Polygon", "coordinates": [[[-81.85597156107406, 36.05200064722651], [-81.86155287331246, 36.05063231328699], [-81.862646200933, 36.046365630245944], [-81.85815908229391, 36.04346745062584], [-81.85257847621503, 36.04483544966127], [-81.85148428266766, 36.049101963181236], [-81.85597156107406, 36.05200064722651]]]}}, {"type": "Feature", "properties": {"h3": "8844d97a63fffff", "count": 1, "mean_rating": 4.7, "category": "Scenic spot"}, "geometry": {"type": "Polygon", "coordinates": [[[-81.86592501959507, 36.03356729131131], [-81.8715038582562, 36.03219896937359], [-81.872595880271, 36.027933484464945], [-81.86810992904532, 36.02503649074619], [-81.86253179579104, 36.0264044777577], [-81.86143890840742, 36.03066979337453], [-81.86592501959507, 36.03356729131131]]]}}, {"type": "Feature", "properties": {"h3": "8844d978e7fffff", "count": 1, "mean_rating": 4.4, "category": "Hiking area"}, "geometry": {"type": "Polygon", "coordinates": [[[-81.83285322903409, 36.12167627292246], [-81.83844339019427, 36.12030723919486], [-81.83954036143557, 36.11603594178566], [-81.83504803975543, 36.11313384818516], [-81.82945858729123, 36.11450254688204], [-81.82836074786341, 36.11877367417042], [-81.83285322903409, 36.12167627292246]]]}}, {"type": "Feature", "properties": {"h3": "8844d9781dfffff", "count": 2, "mean_rating": 4.7, "category": "Tourist attraction"}, "geometry": {"type": "Polygon", "coordinates": [[[-81.84611809609255, 36.090414134990965], [-81.85170418330257, 36.08904528249057], [-81.85279925981972, 36.084776035365195], [-81.84830911638022, 36.081875810498744], [-81.84272373666431, 36.083244327982605], [-81.84162779294586, 36.08751340530977], [-81.84611809609255, 36.090414134990965]]]}}, {"type": "Feature", "properties": {"h3": "8844d979d1fffff", "count": 1, "mean_rating": 4.9, "category": "Hiking area"}, "geometry": {"type": "Polygon", "coordinates": [[[-81.81268810348838, 36.11860731935534], [-81.81827861908496, 36.117239282528324], [-81.81937732654143, 36.112968325543314], [-81.81488638632432, 36.110065575831506], [-81.80929657977117, 36.11143327794397], [-81.80819700444401, 36.115704064443115], [-81.81268810348838, 36.11860731935534]]]}}, {"type": "Feature", "properties": {"h3": "8844dbb4e7fffff", "count": 1, "mean_rating": 4.9, "category": "Scenic spot"}, "geometry": {"type": "Polygon", "coordinates": [[[-81.64478350937583, 36.13954576042112], [-81.65038230810433, 36.13818487017547], [-81.6514965261311, 36.13391359495472], [-81.64701281236832, 36.13100338357915], [-81.64141472692494, 36.132363941442875], [-81.6402996420124, 36.13663504302459], [-81.64478350937583, 36.13954576042112]]]}}, {"type": "Feature", "properties": {"h3": "8844dbb4a5fffff", "count": 1, "mean_rating": 4.8, "category": "Scenic spot"}, "geometry": {"type": "Polygon", "coordinates": [[[-81.63135263027102, 36.15081060563829], [-81.63695319790666, 36.14945005022378], [-81.63806887755527, 36.14517809743914], [-81.63358485677018, 36.14226687394536], [-81.62798500304068, 36.14362709710219], [-81.62686845624343, 36.147898875970995], [-81.63135263027102, 36.15081060563829]]]}}, {"type": "Feature", "properties": {"h3": "8844dbb495fffff", "count": 1, "mean_rating": 4.8, "category": "Scenic spot"}, "geometry": {"type": "Polygon", "coordinates": [[[-81.67507240576755, 36.16419263016662], [-81.68067300143208, 36.16282974199695], [-81.6817850735088, 36.15855658311285], [-81.67729741805897, 36.155646485501926], [-81.67169753575288, 36.157009040679995], [-81.67058459559132, 36.161282026421034], [-81.67507240576755, 36.16419263016662]]]}}, {"type": "Feature", "properties": {"h3": "8844d97833fffff", "count": 1, "mean_rating": 4.9, "category": "Park"}, "geometry": {"type": "Polygon", "coordinates": [[[-81.82606493692744, 36.10732950983299], [-81.83165368083196, 36.10596114606923], [-81.83275093504732, 36.101690872592314], [-81.82826031301344, 36.098789133050104], [-81.8226722775323, 36.10015716197825], [-81.82157415571386, 36.10442726524454], [-81.82606493692744, 36.10732950983299]]]}}, {"type": "Feature", "properties": {"h3": "8844dbb49dfffff", "count": 1, "mean_rating": 4.3, "category": "Scenic spot"}, "geometry": {"type": "Polygon", "coordinates": [[[-81.6817850735088, 36.15855658311285], [-81.68738478355115, 36.157193527999794], [-81.68849612504299, 36.152920708368875], [-81.68400862449823, 36.150011116816145], [-81.6784096275035, 36.151373838875706], [-81.67729741805897, 36.155646485501926], [-81.6817850735088, 36.15855658311285]]]}}, {"type": "Feature", "properties": {"h3": "8844d979ebfffff", "count": 1, "mean_rating": 4.7, "category": "Scenic spot"}, "geometry": {"type": "Polygon", "coordinates": [[[-81.77905742918412, 36.10682317932947], [-81.78464776408559, 36.105456972122504], [-81.78574921477653, 36.101187039306126], [-81.78126119772274, 36.098283484734715], [-81.7756715722478, 36.09964935779911], [-81.7745692544526, 36.103919119537856], [-81.77905742918412, 36.10682317932947]]]}}]}