{"type": "FeatureCollection", "features": [{"type": "Feature", "properties": {"h3": "8844dbb411fffff", "count": 1, "mean_rating": 4.6, "category": "Tourist attraction"}, "geometry": {"type": "Polygon", "coordinates": [[[-81.66154720426404, 36.115470496046505], [-81.66714263810078, 36.11410943779664], [-81.6682548027064, 36.10983969255244], [-81.6637723997274, 36.10693117878666], [-81.65817767810637, 36.108291904565974], [-81.65706464730164, 36.11256147654213], [-81.66154720426404, 36.115470496046505]]]}}, {"type": "Feature", "properties": {"h3": "8844d9783bfffff", "count": 2, "mean_rating": 4.8, "category": "Tourist attraction"}, "geometry": {"type": "Polygon", "coordinates": [[[-81.83275093504732, 36.101690872592314], [-81.83833879327449, 36.100322345693996], [-81.83943532130206, 36.0960524141891], [-81.83494485862386, 36.093151179615994], [-81.82935770851023, 36.09451937161835], [-81.82826031301344, 36.098789133050104], [-81.83275093504732, 36.101690872592314]]]}}, {"type": "Feature", "properties": {"h3": "8844d96a45fffff", "count": 1, "mean_rating": 4.7, "category": "Tourist attraction"}, "geometry": {"type": "Polygon", "coordinates": [[[-81.80948192377765, 36.151417179321285], [-81.81507634132836, 36.15004846595688], [-81.81617608037212, 36.145775290321694], [-81.81168227093232, 36.14287099863805], [-81.80608856345607, 36.144239377116655], [-81.8049879553976, 36.148512382125006], [-81.80948192377765, 36.151417179321285]]]}}, {"type": "Feature", "properties": {"h3": "8844dbb4b7fffff", "count": 1, "mean_rating": 4.7, "category": "Amusement park"}, "geometry": {"type": "Polygon", "coordinates": [[[-81.6515515620716, 36.173915676668834], [-81.6571541009732, 36.17255362347658], [-81.6582685034363, 36.168279959947334], [-81.6537812352391, 36.165368523173086], [-81.6481794104899, 36.16673024365701], [-81.64706413983882, 36.171003733583966], [-81.6515515620716, 36.173915676668834]]]}}, {"type": "Feature", "properties": {"h3": "8844d97a99fffff", "count": 1, "mean_rating": 4.7, "category": "City park"}, "geometry": {"type": "Polygon", "coordinates": [[[-81.92674901813722, 36.1026434005021], [-81.93233367080744, 36.10127056699455], [-81.93342180406736, 36.09699996805313], [-81.92892615316363, 36.09410237091732], [-81.9233422065924, 36.095474868147626], [-81.92225320487763, 36.099745298751216], [-81.92674901813722, 36.1026434005021]]]}}, {"type": "Feature", "properties": {"h3": "8844d96851fffff", "count": 1, "mean_rating": 4.8, "category": "Tourist attraction"}, "geometry": {"type": "Polygon", "coordinates": [[[-81.78955886317554, 36.208364296080624], [-81.7951605655988, 36.20699506780157], [-81.79626338546558, 36.20271814080442], [-81.79176537381858, 36.199810613183956], [-81.78616438357528, 36.201179506491904], [-81.78506069285176, 36.205456262351674], [-81.78955886317554, 36.208364296080624]]]}}, {"type": "Feature", "properties": {"h3": "8844dbb4b5fffff", "count": 1, "mean_rating": 4.4, "category": "Tourist attraction"}, "geometry": {"type": "Polygon", "coordinates": [[[-81.6481794104899, 36.16673024365701], [-81.6537812352391, 36.165368523173086], [-81.65489577446293, 36.16109537192816], [-81.650409356886, 36.158184114773775], [-81.64480824615002, 36.15954550264654], [-81.64369283903105, 36.163818480245304], [-81.6481794104899, 36.16673024365701]]]}}, {"type": "Feature", "properties": {"h3": "8844d9781dfffff", "count": 1, "mean_rating": 4.5, "category": "Tourist attraction"}, "geometry": {"type": "Polygon", "coordinates": [[[-81.84611809609255, 36.090414134990965], [-81.85170418330257, 36.08904528249057], [-81.85279925981972, 36.084776035365195], [-81.84830911638022, 36.081875810498744], [-81.84272373666431, 36.083244327982605], [-81.84162779294586, 36.08751340530977], [-81.84611809609255, 36.090414134990965]]]}}, {"type": "Feature", "properties": {"h3": "8844dbb495fffff", "count": 1, "mean_rating": 4.8, "category": "Tourist attraction"}, "geometry": {"type": "Polygon", "coordinates": [[[-81.67507240576755, 36.16419263016662], [-81.68067300143208, 36.16282974199695], [-81.6817850735088, 36.15855658311285], [-81.67729741805897, 36.155646485501926], [-81.67169753575288, 36.157009040679995], [-81.67058459559132, 36.161282026421034], [-81.67507240576755, 36.16419263016662]]]}}, {"type": "Feature", "properties": {"h3": "8844dbb4e7fffff", "count": 1, "mean_rating": 4.9, "category": "Tourist attraction"}, "geometry": {"type": "Polygon", "coordinates": [[[-81.64478350937583, 36.13954576042112], [-81.65038230810433, 36.13818487017547], [-81.6514965261311, 36.13391359495472], [-81.64701281236832, 36.13100338357915], [-81.64141472692494, 36.132363941442875], [-81.6402996420124, 36.13663504302459], [-81.64478350937583, 36.13954576042112]]]}}, {"type": "Feature", "properties": {"h3": "8844d97807fffff", "count": 1, "mean_rating": 4.9, "category": "Tourist attraction"}, "geometry": {"type": "Polygon", "coordinates": [[[-81.82596547253092, 36.087348559996514], [-81.83155191466716, 36.08598070279262], [-81.83264872542958, 36.08171179544597], [-81.82815996099443, 36.078810915426374], [-81.82257422669947, 36.08017843792934], [-81.82147654905054, 36.08444717511317], [-81.82596547253092, 36.087348559996514]]]}}, {"type": "Feature", "properties": {"h3": "8844dbb4a5fffff", "count": 1, "mean_rating": 4.8, "category": "Tourist attraction"}, "geometry": {"type": "Polygon", "coordinates": [[[-81.63135263027102, 36.15081060563829], [-81.63695319790666, 36.14945005022378], [-81.63806887755527, 36.14517809743914], [-81.63358485677018, 36.14226687394536], [-81.62798500304068, 36.14362709710219], [-81.62686845624343, 36.147898875970995], [-81.63135263027102, 36.15081060563829]]]}}, {"type": "Feature", "properties": {"h3": "882a8b5b09fffff", "count": 1, "mean_rating": 4.8, "category": "Visitor center"}, "geometry": {"type": "Polygon", "coordinates": [[[-80.26555713511146, 36.40153618466912], [-80.27123214647986, 36.40023288277306], [-80.27247614628804, 36.39595445863345], [-80.2680459952835, 36.392979536038624], [-80.26237173397942, 36.394282524838836], [-80.26112687367613, 36.39856074929178], [-80.26555713511146, 36.40153618466912]]]}}, {"type": "Feature", "properties": {"h3": "8844d96139fffff", "count": 1, "mean_rating": 4.4, "category": "Theme park"}, "geometry": {"type": "Polygon", "coordinates": [[[-81.87695320768465, 36.194983023809435], [-81.88255028378154, 36.19361013437762], [-81.88364496063365, 36.18933355100339], [-81.87914343271017, 36.186430026506635], [-81.87354706649771, 36.18780257977251], [-81.87245151837655, 36.19207899366124], [-81.87695320768465, 36.194983023809435]]]}}, {"type": "Feature", "properties": {"h3": "882a8b5b55fffff", "count": 1, "mean_rating": 4.9, "category": "Tourist attraction"}, "geometry": {"type": "Polygon", "coordinates": [[[-80.25545173989065, 36.39986354062201], [-80.26112687367613, 36.39856074929178], [-80.26237173397942, 36.394282524838836], [-80.25794232086837, 36.39130729154358], [-80.25226793730049, 36.39260976994554], [-80.25102221668668, 36.39688779453308], [-80.25545173989065, 36.39986354062201]]]}}, {"type": "Feature", "properties": {"h3": "882a8b5b67fffff", "count": 1, "mean_rating": 4.6, "category": "State park"}, "geometry": {"type": "Polygon", "coordinates": [[[-80.29587701220554, 36.40654918718375], [-80.30155165405124, 36.405244353515776], [-80.30279307126774, 36.40096533138896], [-80.29836070774711, 36.39799134204231], [-80.29268681550484, 36.399295862111956], [-80.29144453724021, 36.40357468508858], [-80.29587701220554, 36.40654918718375]]]}}, {"type": "Feature", "properties": {"h3": "8844d979c1fffff", "count": 1, "mean_rating": 4.9, "category": "Tourist attraction"}, "geometry": {"type": "Polygon", "coordinates": [[[-81.79582737309303, 36.10272389543792], [-81.80141664705337, 36.101357026082475], [-81.80251650360444, 36.09708726378465], [-81.79802795337682, 36.09418454156031], [-81.7924393883601, 36.09555107655427], [-81.79133866467974, 36.099820668094395], [-81.79582737309303, 36.10272389543792]]]}}, {"type": "Feature", "properties": {"h3": "8844d97837fffff", "count": 1, "mean_rating": 4.8, "category": "State park"}, "geometry": {"type": "Polygon", "coordinates": [[[-81.81598523475284, 36.10579513087608], [-81.82157415571386, 36.10442726524454], [-81.8226722775323, 36.10015716197825], [-81.8181823458873, 36.09725509469691], [-81.81259413352322, 36.09862262565086], [-81.8114951442595, 36.102892558524104], [-81.81598523475284, 36.10579513087608]]]}}, {"type": "Feature", "properties": {"h3": "8844d9463dfffff", "count": 1, "mean_rating": 4.6, "category": "Tourist attraction"}, "geometry": {"type": "Polygon", "coordinates": [[[-81.93552831330874, 35.92459002892351], [-81.94109216906367, 35.92322130718744], [-81.94217552931762, 35.91896285706075], [-81.9376958960504, 35.91607329637109], [-81.93213274103387, 35.917441682898875], [-81.93104851859731, 35.921699965285015], [-81.93552831330874, 35.92459002892351]]]}}]}