{
 "type": "FeatureCollection",
 "features": [
  {
   "type": "Feature",
   "geometry": {
    "type": "Point",
    "coordinates": [
     -81.66062339999999,
     36.1140137
    ]
   },
   "properties": {
    "name": "The Blowing Rock",
    "address": "432 The Rock Rd, Blowing Rock, NC 28605",
    "rating": 4.6,
    "reviews": 5019,
    "ptype": "Tourist attraction",
    "place_id": "ChIJD84nbhDlUIgR-5RsEfLD7gc"
   }
  },
  {
   "type": "Feature",
   "geometry": {
    "type": "Point",
    "coordinates": [
     -81.8322841,
     36.0949786
    ]
   },
   "properties": {
    "name": "Mile High Swinging Bridge",
    "address": "2050 Blowing Rock Hwy, Linville, NC 28646",
    "rating": 4.8,
    "reviews": 4336,
    "ptype": "Tourist attraction",
    "place_id": "ChIJG3CKkPLsUIgRFSGQe3WxKkE"
   }
  },
  {
   "type": "Feature",
   "geometry": {
    "type": "Point",
    "coordinates": [
     -81.8088549,
     36.1497124
    ]
   },
   "properties": {
    "name": "Otter Falls Trail",
    "address": "825 Skyland Dr, Seven Devils, NC 28604",
    "rating": 4.7,
    "reviews": 968,
    "ptype": "Tourist attraction",
    "place_id": "ChIJ34-1II_tUIgREIxhu0aPy3s"
   }
  },
  {
   "type": "Feature",
   "geometry": {
    "type": "Point",
    "coordinates": [
     -81.648566,
     36.170687099999995
    ]
   },
   "properties": {
    "name": "Tweetsie Railroad",
    "address": "300 Tweetsie Railroad Ln, Blowing Rock, NC 28605",
    "rating": 4.7,
    "reviews": 5623,
    "ptype": "Amusement park",
    "place_id": "ChIJd8uvdUXlUIgRHeEZIuJQ8g0"
   }
  },
  {
   "type": "Feature",
   "geometry": {
    "type": "Point",
    "coordinates": [
     -81.9297346,
     36.1004905
    ]
   },
   "properties": {
    "name": "Waterfalls Park",
    "address": "Newland Hwy, Newland, NC 28657",
    "rating": 4.7,
    "reviews": 735,
    "ptype": "City park",
    "place_id": "ChIJKWS6xb-TUIgRM8FbSyIm7gk"
   }
  },
  {
   "type": "Feature",
   "geometry": {
    "type": "Point",
    "coordinates": [
     -81.79312469999999,
     36.200807
    ]
   },
   "properties": {
    "name": "Waterfalls",
    "address": "5243 NC-194, Banner Elk, NC 28604",
    "rating": 4.8,
    "reviews": 41,
    "ptype": "Tourist attraction",
    "place_id": "ChIJleoYp5DzUIgRPDVo2M6eyJE"
   }
  },
  {
   "type": "Feature",
   "geometry": {
    "type": "Point",
    "coordinates": [
     -81.64419869999999,
     36.163337999999996
    ]
   },
   "properties": {
    "name": "Mystery Hill",
    "address": "129 Mystery Hill Ln, Blowing Rock, NC 28605",
    "rating": 4.4,
    "reviews": 2722,
    "ptype": "Tourist attraction",
    "place_id": "ChIJ0ZRlBiH7UIgR6Ubxnbkgt_8"
   }
  },
  {
   "type": "Feature",
   "geometry": {
    "type": "Point",
    "coordinates": [
     -81.8462718,
     36.0850742
    ]
   },
   "properties": {
    "name": "Grandfather Mountain",
    "address": "2050 Blowing Rock Hwy, Linville, NC 28646",
    "rating": 4.5,
    "reviews": 545,
    "ptype": "Tourist attraction",
    "place_id": "ChIJBVxlUZLsUIgRCc5oc0_kWYQ"
   }
  },
  {
   "type": "Feature",
   "geometry": {
    "type": "Point",
    "coordinates": [
     -81.6768993,
     36.16256
    ]
   },
   "properties": {
    "name": "Flat Top Lookout Tower",
    "address": "The Flat Top Rd, Blowing Rock, NC 28605",
    "rating": 4.8,
    "reviews": 203,
    "ptype": "Tourist attraction",
    "place_id": "ChIJN2Szmrv6UIgR0lNspGAqP6g"
   }
  },
  {
   "type": "Feature",
   "geometry": {
    "type": "Point",
    "coordinates": [
     -81.6431617,
     36.136284599999996
    ]
   },
   "properties": {
    "name": "Thunder Hill Overlook",
    "address": "Blowing Rock, NC 28605",
    "rating": 4.9,
    "reviews": 790,
    "ptype": "Tourist attraction",
    "place_id": "ChIJ50CFItfkUIgRN3G2odyqkjM"
   }
  },
  {
   "type": "Feature",
   "geometry": {
    "type": "Point",
    "coordinates": [
     -81.82844469999999,
     36.0825791
    ]
   },
   "properties": {
    "name": "Beacon Heights Overlook Trail",
    "address": "Beacon Heights Trail, Linville, NC 28646",
    "rating": 4.9,
    "reviews": 601,
    "ptype": "Tourist attraction",
    "place_id": "ChIJWawpUI_sUIgRwmA7R-P2b00"
   }
  },
  {
   "type": "Feature",
   "geometry": {
    "type": "Point",
    "coordinates": [
     -81.6334961,
     36.1445102
    ]
   },
   "properties": {
    "name": "Raven Rocks Overlook",
    "address": "Blue Ridge Pkwy, Boone, NC 28607",
    "rating": 4.8,
    "reviews": 425,
    "ptype": "Tourist attraction",
    "place_id": "ChIJ2w3VKDP7UIgRH5pplaWZZDg"
   }
  },
  {
   "type": "Feature",
   "geometry": {
    "type": "Point",
    "coordinates": [
     -80.266571,
     36.395078
    ]
   },
   "properties": {
    "name": "Hanging Rock State Park Visitor Center",
    "address": "Walnut Cove, NC 27052",
    "rating": 4.8,
    "reviews": 831,
    "ptype": "Visitor center",
    "place_id": "ChIJkYtx4q9aUogRHoaAI7n-o48"
   }
  },
  {
   "type": "Feature",
   "geometry": {
    "type": "Point",
    "coordinates": [
     -81.87962689999999,
     36.1870905
    ]
   },
   "properties": {
    "name": "Land of Oz",
    "address": "1007 Beech Mountain Pkwy, Beech Mountain, NC 28604",
    "rating": 4.4,
    "reviews": 558,
    "ptype": "Theme park",
    "place_id": "ChIJMT4_BMuNUIgRy_7ZZ9yTiAs"
   }
  },
  {
   "type": "Feature",
   "geometry": {
    "type": "Point",
    "coordinates": [
     -80.25601379999999,
     36.3959854
    ]
   },
   "properties": {
    "name": "Hanging Rock",
    "address": "Hanging Rock Park Rd, Walnut Cove, NC 27052",
    "rating": 4.9,
    "reviews": 761,
    "ptype": "Tourist attraction",
    "place_id": "ChIJdaCfE71aUogRkPWXtHD5u_0"
   }
  },
  {
   "type": "Feature",
   "geometry": {
    "type": "Point",
    "coordinates": [
     -80.29958049999999,
     36.401815899999995
    ]
   },
   "properties": {
    "name": "Tory's Den Cave",
    "address": "1287-1299 Charlie Young Rd, Walnut Cove, NC 27052",
    "rating": 4.6,
    "reviews": 366,
    "ptype": "State park",
    "place_id": "ChIJZXd93WlFUogRnfaT6KPfiB4"
   }
  },
  {
   "type": "Feature",
   "geometry": {
    "type": "Point",
    "coordinates": [
     -81.83227649999999,
     36.0950382
    ]
   },
   "properties": {
    "name": "Grandfather Mountain",
    "address": "2050 Blowing Rock Hwy, Linville, NC 28646",
    "rating": 4.8,
    "reviews": 6888,
    "ptype": "Tourist attraction",
    "place_id": "ChIJFdD4J8LsUIgRwV8MGK9aw5M"
   }
  },
  {
   "type": "Feature",
   "geometry": {
    "type": "Point",
    "coordinates": [
     -81.79959989999999,
     36.0970681
    ]
   },
   "properties": {
    "name": "Rough Ridge Lookout - Grandfather Mountain, NC.",
    "address": "3218 Blue Ridge Pkwy, Linville, NC 28646",
    "rating": 4.9,
    "reviews": 1316,
    "ptype": "Tourist attraction",
    "place_id": "ChIJyzbNBTnsUIgRhmY8PnBNhHI"
   }
  },
  {
   "type": "Feature",
   "geometry": {
    "type": "Point",
    "coordinates": [
     -81.8181518,
     36.1040754
    ]
   },
   "properties": {
    "name": "Grandfather Mountain State Park",
    "address": "9872 Highway 105 South, Banner Elk, NC 28604",
    "rating": 4.8,
    "reviews": 6734,
    "ptype": "State park",
    "place_id": "ChIJB2gJeQfyUIgRluXoqwFT3bo"
   }
  },
  {
   "type": "Feature",
   "geometry": {
    "type": "Point",
    "coordinates": [
     -81.9383927,
     35.9193364
    ]
   },
   "properties": {
    "name": "Linville Caverns, Inc",
    "address": "19929 US-221, Marion, NC 28752",
    "rating": 4.6,
    "reviews": 4649,
    "ptype": "Tourist attraction",
    "place_id": "ChIJEZl3tbu-UIgR9CUwPShxT7E"
   }
  }
 ]
}