{"type": "FeatureCollection", "features": [{"type": "Feature", "properties": {"cell": "0,0"}, "geometry": {"type": "Polygon", "coordinates": [[[-82.42510000000001, 35.6049], [-82.3451, 35.6049], [-82.3451, 35.6849], [-82.42510000000001, 35.6849], [-82.42510000000001, 35.6049]]]}}, {"type": "Feature", "properties": {"cell": "0,1"}, "geometry": {"type": "Polygon", "coordinates": [[[-82.34510000000002, 35.6049], [-82.2651, 35.6049], [-82.2651, 35.6849], [-82.34510000000002, 35.6849], [-82.34510000000002, 35.6049]]]}}, {"type": "Feature", "properties": {"cell": "0,2"}, "geometry": {"type": "Polygon", "coordinates": [[[-82.2651, 35.6049], [-82.18509999999999, 35.6049], [-82.18509999999999, 35.6849], [-82.2651, 35.6849], [-82.2651, 35.6049]]]}}, {"type": "Feature", "properties": {"cell": "0,3"}, "geometry": {"type": "Polygon", "coordinates": [[[-82.1851, 35.6049], [-82.1051, 35.6049], [-82.1051, 35.6849], [-82.1851, 35.6849], [-82.1851, 35.6049]]]}}, {"type": "Feature", "properties": {"cell": "1,0"}, "geometry": {"type": "Polygon", "coordinates": [[[-82.42510000000001, 35.6849], [-82.3451, 35.6849], [-82.3451, 35.7649], [-82.42510000000001, 35.7649], [-82.42510000000001, 35.6849]]]}}, {"type": "Feature", "properties": {"cell": "1,1"}, "geometry": {"type": "Polygon", "coordinates": [[[-82.34510000000002, 35.6849], [-82.2651, 35.6849], [-82.2651, 35.7649], [-82.34510000000002, 35.7649], [-82.34510000000002, 35.6849]]]}}, {"type": "Feature", "properties": {"cell": "1,2"}, "geometry": {"type": "Polygon", "coordinates": [[[-82.2651, 35.6849], [-82.18509999999999, 35.6849], [-82.18509999999999, 35.7649], [-82.2651, 35.7649], [-82.2651, 35.6849]]]}}, {"type": "Feature", "properties": {"cell": "1,3"}, "geometry": {"type": "Polygon", "coordinates": [[[-82.1851, 35.6849], [-82.1051, 35.6849], [-82.1051, 35.7649], [-82.1851, 35.7649], [-82.1851, 35.6849]]]}}, {"type": "Feature", "properties": {"cell": "2,0"}, "geometry": {"type": "Polygon", "coordinates": [[[-82.42510000000001, 35.7649], [-82.3451, 35.7649], [-82.3451, 35.844899999999996], [-82.42510000000001, 35.844899999999996], [-82.42510000000001, 35.7649]]]}}, {"type": "Feature", "properties": {"cell": "2,1"}, "geometry": {"type": "Polygon", "coordinates": [[[-82.34510000000002, 35.7649], [-82.2651, 35.7649], [-82.2651, 35.844899999999996], [-82.34510000000002, 35.844899999999996], [-82.34510000000002, 35.7649]]]}}, {"type": "Feature", "properties": {"cell": "2,2"}, "geometry": {"type": "Polygon", "coordinates": [[[-82.2651, 35.7649], [-82.18509999999999, 35.7649], [-82.18509999999999, 35.844899999999996], [-82.2651, 35.844899999999996], [-82.2651, 35.7649]]]}}, {"type": "Feature", "properties": {"cell": "2,3"}, "geometry": {"type": "Polygon", "coordinates": [[[-82.1851, 35.7649], [-82.1051, 35.7649], [-82.1051, 35.844899999999996], [-82.1851, 35.844899999999996], [-82.1851, 35.7649]]]}}, {"type": "Feature", "properties": {"cell": "3,0"}, "geometry": {"type": "Polygon", "coordinates": [[[-82.42510000000001, 35.844899999999996], [-82.3451, 35.844899999999996], [-82.3451, 35.924899999999994], [-82.42510000000001, 35.924899999999994], [-82.42510000000001, 35.844899999999996]]]}}, {"type": "Feature", "properties": {"cell": "3,1"}, "geometry": {"type": "Polygon", "coordinates": [[[-82.34510000000002, 35.844899999999996], [-82.2651, 35.844899999999996], [-82.2651, 35.924899999999994], [-82.34510000000002, 35.924899999999994], [-82.34510000000002, 35.844899999999996]]]}}, {"type": "Feature", "properties": {"cell": "3,2"}, "geometry": {"type": "Polygon", "coordinates": [[[-82.2651, 35.844899999999996], [-82.18509999999999, 35.844899999999996], [-82.18509999999999, 35.924899999999994], [-82.2651, 35.924899999999994], [-82.2651, 35.844899999999996]]]}}, {"type": "Feature", "properties": {"cell": "3,3"}, "geometry": {"type": "Polygon", "coordinates": [[[-82.1851, 35.844899999999996], [-82.1051, 35.844899999999996], [-82.1051, 35.924899999999994], [-82.1851, 35.924899999999994], [-82.1851, 35.844899999999996]]]}}]}