{"type": "FeatureCollection", "features": [{"type": "Feature", "properties": {"h3": "8844d91357fffff", "count": 1, "mean_rating": 4.7, "category": "Scenic spot"}, "geometry": {"type": "Polygon", "coordinates": [[[-82.34056259716763, 35.74036270660599], [-82.34609091312477, 35.73898048953312], [-82.34713413247442, 35.734732320933844], [-82.34264989547155, 35.73186652921539], [-82.33712226617372, 35.73324840651262], [-82.3360781872681, 35.73749641526415], [-82.34056259716763, 35.74036270660599]]]}}, {"type": "Feature", "properties": {"h3": "8844d91a5dfffff", "count": 2, "mean_rating": 4.7, "category": "Hiking area"}, "geometry": {"type": "Polygon", "coordinates": [[[-82.22754911425338, 35.756592465434245], [-82.23308335043427, 35.75521489267023], [-82.23413698232804, 35.75096625342824], [-82.22965723715423, 35.74809534887536], [-82.22412369055836, 35.74947258336475], [-82.2230691996005, 35.75372106064193], [-82.22754911425338, 35.756592465434245]]]}}, {"type": "Feature", "properties": {"h3": "8844d98995fffff", "count": 1, "mean_rating": 4.9, "category": "Scenic spot"}, "geometry": {"type": "Polygon", "coordinates": [[[-82.37137465602366, 35.70108562813506], [-82.3665352357503, 35.70290760705634], [-82.366179618949, 35.70759374948662], [-82.37066380685272, 35.710458182503196], [-82.37550376003259, 35.708636293142746], [-82.3758589923695, 35.70394988120884], [-82.37137465602366, 35.70108562813506]]]}}, {"type": "Feature", "properties": {"h3": "8844d9c66dfffff", "count": 1, "mean_rating": 4.8, "category": "Tourist attraction"}, "geometry": {"type": "Polygon", "coordinates": [[[-82.24745785626425, 35.60212633671688], [-82.24262837231596, 35.60394590990714], [-82.24226795448888, 35.60863079902516], [-82.24673740271449, 35.611496385853606], [-82.251567418915, 35.609676903310714], [-82.25192745460497, 35.60499174329576], [-82.24745785626425, 35.60212633671688]]]}}, {"type": "Feature", "properties": {"h3": "8844d9130bfffff", "count": 1, "mean_rating": 4.4, "category": "Observation deck"}, "geometry": {"type": "Polygon", "coordinates": [[[-82.33054967886333, 35.73887814510374], [-82.3360781872681, 35.73749641526415], [-82.33712226617372, 35.73324840651262], [-82.33263869613279, 35.73038228758955], [-82.32711087456413, 35.73176367780638], [-82.32606593624898, 35.736011526529204], [-82.33054967886333, 35.73887814510374]]]}}, {"type": "Feature", "properties": {"h3": "8844d9813dfffff", "count": 1, "mean_rating": 4.7, "category": "Scenic spot"}, "geometry": {"type": "Polygon", "coordinates": [[[-82.49070814904081, 35.615034006780895], [-82.4858678047864, 35.61686553911429], [-82.48551745582088, 35.621557869099284], [-82.49000783640967, 35.62441893582678], [-82.49484871228921, 35.62258749160971], [-82.49519867592227, 35.61789489255283], [-82.49070814904081, 35.615034006780895]]]}}, {"type": "Feature", "properties": {"h3": "8844d9c619fffff", "count": 1, "mean_rating": 4.9, "category": "Hiking area"}, "geometry": {"type": "Polygon", "coordinates": [[[-82.29181792016496, 35.63546392215077], [-82.28698497569836, 35.63728443915965], [-82.28662628150528, 35.64196984100766], [-82.29110091470048, 35.64483499626036], [-82.29593439163355, 35.64301456950614], [-82.29629270287225, 35.638328897248385], [-82.29181792016496, 35.63546392215077]]]}}, {"type": "Feature", "properties": {"h3": "8844d98ad1fffff", "count": 1, "mean_rating": 4.6, "category": "Hiking area"}, "geometry": {"type": "Polygon", "coordinates": [[[-82.48860684267369, 35.643187109375916], [-82.48376525015851, 35.64501741336096], [-82.48341471683098, 35.649708900680615], [-82.48790616150463, 35.65257035296473], [-82.49274828594535, 35.65074013718005], [-82.49309843375431, 35.646048380914934], [-82.48860684267369, 35.643187109375916]]]}}, {"type": "Feature", "properties": {"h3": "8844d98a87fffff", "count": 1, "mean_rating": 4.7, "category": "Scenic spot"}, "geometry": {"type": "Polygon", "coordinates": [[[-82.45955902488312, 35.654164113430646], [-82.4547181277429, 35.655992489550236], [-82.45436634610326, 35.66068274768026], [-82.45885584680379, 35.66354489879647], [-82.46369727607856, 35.6617166112073], [-82.46404867248562, 35.65702608397553], [-82.45955902488312, 35.654164113430646]]]}}, {"type": "Feature", "properties": {"h3": "8844d9c4adfffff", "count": 2, "mean_rating": 4.65, "category": "Hiking area"}, "geometry": {"type": "Polygon", "coordinates": [[[-82.22043906769217, 35.72249424921277], [-82.22596966912371, 35.72111787950794], [-82.22702319344873, 35.71687164101415], [-82.22254697418074, 35.71400193420164], [-82.21701706151987, 35.71537796596832], [-82.21596267940545, 35.719624042446], [-82.22043906769217, 35.72249424921277]]]}}, {"type": "Feature", "properties": {"h3": "8844d9c4a5fffff", "count": 1, "mean_rating": 4.9, "category": "Scenic spot"}, "geometry": {"type": "Polygon", "coordinates": [[[-82.2138533567374, 35.72811705859734], [-82.21938483534554, 35.726740838343744], [-82.22043906769217, 35.72249424921277], [-82.21596267940545, 35.719624042446], [-82.21043188987078, 35.720999924816894], [-82.20937679959854, 35.725246351797615], [-82.2138533567374, 35.72811705859734]]]}}, {"type": "Feature", "properties": {"h3": "8844d9c4d1fffff", "count": 1, "mean_rating": 4.9, "category": "Scenic spot"}, "geometry": {"type": "Polygon", "coordinates": [[[-82.27706105709007, 35.72432782571137], [-82.28258983458355, 35.72294887102833], [-82.28363836068903, 35.71870217660676], [-82.27915896774084, 35.71583459780797], [-82.27363087783813, 35.71721321373145], [-82.27258149334173, 35.72145974717355], [-82.27706105709007, 35.72432782571137]]]}}, {"type": "Feature", "properties": {"h3": "8844d98ad7fffff", "count": 1, "mean_rating": 4.8, "category": "Scenic spot"}, "geometry": {"type": "Polygon", "coordinates": [[[-82.48341471683098, 35.649708900680615], [-82.4785730319595, 35.65153867851746], [-82.47822225978369, 35.656229820365034], [-82.48271355794874, 35.65909145333024], [-82.48755577483077, 35.657261763762754], [-82.48790616150463, 35.65257035296473], [-82.48341471683098, 35.649708900680615]]]}}, {"type": "Feature", "properties": {"h3": "8844d988c9fffff", "count": 1, "mean_rating": 4.8, "category": "Scenic spot"}, "geometry": {"type": "Polygon", "coordinates": [[[-82.43984372772898, 35.66616533355684], [-82.4350030875171, 35.66799221964508], [-82.43465044305522, 35.67268151705179], [-82.43913882384521, 35.675544197558715], [-82.44397999638058, 35.67371740023473], [-82.44433225576984, 35.66902783364354], [-82.43984372772898, 35.66616533355684]]]}}, {"type": "Feature", "properties": {"h3": "8844d989bbfffff", "count": 1, "mean_rating": 4.9, "category": "Scenic spot"}, "geometry": {"type": "Polygon", "coordinates": [[[-82.366179618949, 35.70759374948662], [-82.36134010823339, 35.70941520188207], [-82.36098425246328, 35.71410099766061], [-82.36546829182333, 35.71696561055574], [-82.3703083355299, 35.71514424778982], [-82.37066380685272, 35.710458182503196], [-82.366179618949, 35.70759374948662]]]}}, {"type": "Feature", "properties": {"h3": "8844d91a07fffff", "count": 1, "mean_rating": 4.8, "category": "Hiking area"}, "geometry": {"type": "Polygon", "coordinates": [[[-82.19775850187031, 35.771976031454344], [-82.20329556197115, 35.77059939760637], [-82.2043521808578, 35.7663498696971], [-82.19987259901797, 35.76347713814482], [-82.1943362295882, 35.76485343403898], [-82.19327875137661, 35.76910279939953], [-82.19775850187031, 35.771976031454344]]]}}, {"type": "Feature", "properties": {"h3": "8844d91261fffff", "count": 1, "mean_rating": 4.8, "category": "Hiking area"}, "geometry": {"type": "Polygon", "coordinates": [[[-82.3744378761528, 35.722694681120466], [-82.36959729938917, 35.724515954284016], [-82.36924173456315, 35.72920159537791], [-82.37372713113474, 35.732066232683906], [-82.37856824102154, 35.73024504909549], [-82.37892342118083, 35.72555913862992], [-82.3744378761528, 35.722694681120466]]]}}, {"type": "Feature", "properties": {"h3": "8844d9126dfffff", "count": 1, "mean_rating": 4.4, "category": "Tourist attraction"}, "geometry": {"type": "Polygon", "coordinates": [[[-82.3703083355299, 35.71514424778982], [-82.36546829182333, 35.71696561055574], [-82.36511258149083, 35.721651329080906], [-82.36959729938917, 35.724515954284016], [-82.3744378761528, 35.722694681120466], [-82.3747932019283, 35.718008693155404], [-82.3703083355299, 35.71514424778982]]]}}, {"type": "Feature", "properties": {"h3": "8844d95659fffff", "count": 1, "mean_rating": 4.9, "category": "Hiking area"}, "geometry": {"type": "Polygon", "coordinates": [[[-82.05114590452457, 35.776432564317425], [-82.0566886992559, 35.77506240601073], [-82.05775846788653, 35.77081344817121], [-82.05328629990228, 35.76793481385313], [-82.04774419914794, 35.76930463628243], [-82.04667357245097, 35.77355342886768], [-82.05114590452457, 35.776432564317425]]]}}, {"type": "Feature", "properties": {"h3": "8844d954d9fffff", "count": 1, "mean_rating": 4.8, "category": "Scenic spot"}, "geometry": {"type": "Polygon", "coordinates": [[[-82.02862601785168, 35.865728197438195], [-82.03417982938808, 35.86435676719372], [-82.03525357681261, 35.86010178850338], [-82.03077437376287, 35.8572184059015], [-82.02522125925232, 35.85858949998649], [-82.02414665081612, 35.86284431279324], [-82.02862601785168, 35.865728197438195]]]}}, {"type": "Feature", "properties": {"h3": "8844d9c759fffff", "count": 1, "mean_rating": 4.8, "category": "Hiking area"}, "geometry": {"type": "Polygon", "coordinates": [[[-82.23296976044027, 35.607584095929994], [-82.22814063264136, 35.60940270878548], [-82.22777959448241, 35.61408698156266], [-82.23224806608242, 35.61695291246124], [-82.23707772623393, 35.61513439041741], [-82.23743838240011, 35.61044984666709], [-82.23296976044027, 35.607584095929994]]]}}, {"type": "Feature", "properties": {"h3": "8844d9d5bbfffff", "count": 1, "mean_rating": 4.8, "category": "National forest"}, "geometry": {"type": "Polygon", "coordinates": [[[-82.24334911339926, 35.5945757121254], [-82.23852016163663, 35.596395375989445], [-82.23815960009736, 35.601080339396184], [-82.24262837231596, 35.60394590990714], [-82.24745785626425, 35.60212633671688], [-82.2478180357756, 35.597441102345606], [-82.24334911339926, 35.5945757121254]]]}}, {"type": "Feature", "properties": {"h3": "8844d9c591fffff", "count": 1, "mean_rating": 5.0, "category": "Hiking area"}, "geometry": {"type": "Polygon", "coordinates": [[[-82.19725679073214, 35.73224444483111], [-82.20278933436174, 35.73086886190177], [-82.20384513307428, 35.7266220845561], [-82.19936924611987, 35.723751052565014], [-82.19383739204156, 35.72512629782075], [-82.19278073541567, 35.729372912701514], [-82.19725679073214, 35.73224444483111]]]}}, {"type": "Feature", "properties": {"h3": "8844d91105fffff", "count": 1, "mean_rating": 4.9, "category": "State park"}, "geometry": {"type": "Polygon", "coordinates": [[[-82.26445801947582, 35.775311373680246], [-82.26999306612777, 35.773931658871746], [-82.27104381717393, 35.76968151034687], [-82.2665603816955, 35.76681123791964], [-82.26102602435652, 35.768190613796754], [-82.25997441323213, 35.77244060099271], [-82.26445801947582, 35.775311373680246]]]}}, {"type": "Feature", "properties": {"h3": "8844d9183dfffff", "count": 1, "mean_rating": 4.8, "category": "Hiking area"}, "geometry": {"type": "Polygon", "coordinates": [[[-82.1449518488998, 35.81699246785387], [-82.15049594157298, 35.815617045725936], [-82.15155824740818, 35.81136472223943], [-82.14707732103403, 35.808487984467405], [-82.14153392146471, 35.8098630690909], [-82.14047075521546, 35.814115228951174], [-82.1449518488998, 35.81699246785387]]]}}, {"type": "Feature", "properties": {"h3": "8844d9cc09fffff", "count": 1, "mean_rating": 4.9, "category": "Hiking area"}, "geometry": {"type": "Polygon", "coordinates": [[[-82.04698697409853, 35.68986134066731], [-82.05252003234894, 35.68849359194057], [-82.05358826394016, 35.684250645656235], [-82.04912429229948, 35.68137561318069], [-82.04359192564306, 35.682743026680285], [-82.04252283908318, 35.686985807843136], [-82.04698697409853, 35.68986134066731]]]}}, {"type": "Feature", "properties": {"h3": "8844d9104dfffff", "count": 1, "mean_rating": 4.4, "category": "Waterfall"}, "geometry": {"type": "Polygon", "coordinates": [[[-82.35088955160087, 35.76170971226192], [-82.35641992829352, 35.76032647527225], [-82.35746268682898, 35.75607677068893], [-82.35297592913024, 35.7532104627614], [-82.34744623947567, 35.754593359680506], [-82.34640262053044, 35.758842904557824], [-82.35088955160087, 35.76170971226192]]]}}, {"type": "Feature", "properties": {"h3": "8844d91831fffff", "count": 1, "mean_rating": 5.0, "category": "Hiking area"}, "geometry": {"type": "Polygon", "coordinates": [[[-82.14837076626172, 35.824122553959555], [-82.15391555216834, 35.822746794229275], [-82.15497770944899, 35.81849395834228], [-82.15049594157298, 35.815617045725936], [-82.1449518488998, 35.81699246785387], [-82.14388883091898, 35.82124514016075], [-82.14837076626172, 35.824122553959555]]]}}, {"type": "Feature", "properties": {"h3": "8844d91ae7fffff", "count": 1, "mean_rating": 4.7, "category": "Campground"}, "geometry": {"type": "Polygon", "coordinates": [[[-82.20486006005349, 35.80610305175052], [-82.21040076400567, 35.804725216034484], [-82.21145749358966, 35.80047328876869], [-82.20697437987424, 35.79759935967695], [-82.20143436741121, 35.79897685710308], [-82.20037677722392, 35.803228621871106], [-82.20486006005349, 35.80610305175052]]]}}, {"type": "Feature", "properties": {"h3": "8844d9199bfffff", "count": 1, "mean_rating": 4.1, "category": "Waterfall"}, "geometry": {"type": "Polygon", "coordinates": [[[-82.1387981675544, 35.86241154740573], [-82.14434767672027, 35.861035232950314], [-82.14541152657547, 35.85677981418316], [-82.14092672928294, 35.85390087367842], [-82.13537791465478, 35.855276850407556], [-82.13431320283142, 35.859532105327936], [-82.1387981675544, 35.86241154740573]]]}}]}