{
"type": "FeatureCollection",
"name": "h3_hexagons",
"crs": { "type": "name", "properties": { "name": "urn:ogc:def:crs:OGC:1.3:CRS84" } },
"features": [
{ "type": "Feature", "properties": { "h3": "8844d9103bfffff", "count": 1, "mean_rating": 4.8, "lat": 35.8021685, "lng": -82.345189, "category": "National forest" }, "geometry": { "type": "Polygon", "coordinates": [ [ [ -82.344937409412097, 35.80709223305346 ], [ -82.350473180483803, 35.805708079133744 ], [ -82.351517445665991, 35.80145527103938 ], [ -82.347026801791344, 35.798586776743313 ], [ -82.341491719175508, 35.799970590363145 ], [ -82.340446592027263, 35.804223238538995 ], [ -82.344937409412097, 35.80709223305346 ] ] ] } },
{ "type": "Feature", "properties": { "h3": "8844d91105fffff", "count": 2, "mean_rating": 4.85, "lat": 35.77009535, "lng": -82.264004, "category": "Hiking area" }, "geometry": { "type": "Polygon", "coordinates": [ [ [ -82.264458019475825, 35.775311373680246 ], [ -82.269993066127768, 35.773931658871746 ], [ -82.271043817173933, 35.769681510346871 ], [ -82.266560381695498, 35.76681123791964 ], [ -82.261026024356525, 35.768190613796754 ], [ -82.259974413232129, 35.772440600992709 ], [ -82.264458019475825, 35.775311373680246 ] ] ] } },
{ "type": "Feature", "properties": { "h3": "8844d9114dfffff", "count": 1, "mean_rating": 4.9, "lat": 35.7456867, "lng": -82.2774482, "category": "Hiking area" }, "geometry": { "type": "Polygon", "coordinates": [ [ [ -82.280777041484797, 35.751304182909543 ], [ -82.286308761414716, 35.749924359952054 ], [ -82.287357539737485, 35.745675777113739 ], [ -82.282875457560735, 35.742807178166359 ], [ -82.27734442590581, 35.74418666212496 ], [ -82.276294788201596, 35.748435083990046 ], [ -82.280777041484797, 35.751304182909543 ] ] ] } },
{ "type": "Feature", "properties": { "h3": "8844d91163fffff", "count": 2, "mean_rating": 5.0, "lat": 35.76543755, "lng": -82.2650821, "category": "Hiking area" }, "geometry": { "type": "Polygon", "coordinates": [ [ [ -82.261026024356525, 35.768190613796754 ], [ -82.266560381695498, 35.76681123791964 ], [ -82.267611284194544, 35.762561601605988 ], [ -82.26312868919689, 35.759691502505412 ], [ -82.257595021043358, 35.761070539549337 ], [ -82.256543258751137, 35.765320014487301 ], [ -82.261026024356525, 35.768190613796754 ] ] ] } },
{ "type": "Feature", "properties": { "h3": "8844d91261fffff", "count": 1, "mean_rating": 4.8, "lat": 35.7287178, "lng": -82.3743778, "category": "Hiking area" }, "geometry": { "type": "Polygon", "coordinates": [ [ [ -82.374437876152797, 35.722694681120466 ], [ -82.36959729938917, 35.724515954284016 ], [ -82.369241734563147, 35.729201595377909 ], [ -82.373727131134743, 35.732066232683906 ], [ -82.37856824102154, 35.730245049095487 ], [ -82.378923421180829, 35.725559138629919 ], [ -82.374437876152797, 35.722694681120466 ] ] ] } },
{ "type": "Feature", "properties": { "h3": "8844d9183dfffff", "count": 1, "mean_rating": 4.8, "lat": 35.812353, "lng": -82.1433417, "category": "Hiking area" }, "geometry": { "type": "Polygon", "coordinates": [ [ [ -82.144951848899794, 35.816992467853872 ], [ -82.150495941572984, 35.815617045725936 ], [ -82.151558247408175, 35.811364722239432 ], [ -82.147077321034033, 35.808487984467405 ], [ -82.141533921464713, 35.809863069090902 ], [ -82.14047075521546, 35.814115228951174 ], [ -82.144951848899794, 35.816992467853872 ] ] ] } },
{ "type": "Feature", "properties": { "h3": "8844d91a07fffff", "count": 1, "mean_rating": 4.8, "lat": 35.7684699, "lng": -82.1952975, "category": "Hiking area" }, "geometry": { "type": "Polygon", "coordinates": [ [ [ -82.197758501870311, 35.771976031454344 ], [ -82.203295561971146, 35.770599397606368 ], [ -82.204352180857796, 35.766349869697102 ], [ -82.199872599017965, 35.763477138144822 ], [ -82.194336229588203, 35.764853434038983 ], [ -82.19327875137661, 35.769102799399533 ], [ -82.197758501870311, 35.771976031454344 ] ] ] } },
{ "type": "Feature", "properties": { "h3": "8844d91a43fffff", "count": 1, "mean_rating": 4.7, "lat": 35.7510255, "lng": -82.2200335, "category": "Hiking area" }, "geometry": { "type": "Polygon", "coordinates": [ [ [ -82.217534774802587, 35.75509814529665 ], [ -82.223069199600502, 35.753721060641929 ], [ -82.224123690558358, 35.749472583364749 ], [ -82.219644615683279, 35.746601352848153 ], [ -82.214110880645805, 35.747978099381868 ], [ -82.213055530772223, 35.752226414513501 ], [ -82.217534774802587, 35.75509814529665 ] ] ] } },
{ "type": "Feature", "properties": { "h3": "8844d91a5dfffff", "count": 2, "mean_rating": 4.7, "lat": 35.75037385, "lng": -82.22895585, "category": "Hiking area" }, "geometry": { "type": "Polygon", "coordinates": [ [ [ -82.227549114253378, 35.756592465434245 ], [ -82.233083350434271, 35.755214892670232 ], [ -82.234136982328039, 35.750966253428238 ], [ -82.229657237154228, 35.74809534887536 ], [ -82.224123690558358, 35.749472583364749 ], [ -82.223069199600502, 35.753721060641929 ], [ -82.227549114253378, 35.756592465434245 ] ] ] } },
{ "type": "Feature", "properties": { "h3": "8844d91aa9fffff", "count": 1, "mean_rating": 4.7, "lat": 35.8064989, "lng": -82.2055863, "category": "Hiking area" }, "geometry": { "type": "Polygon", "coordinates": [ [ [ -82.208286744181194, 35.813229932612046 ], [ -82.213828139751158, 35.811851758508048 ], [ -82.214884719194089, 35.807599319013512 ], [ -82.210400764005669, 35.804725216034484 ], [ -82.204860060053491, 35.806103051750519 ], [ -82.203802619721415, 35.81035532879379 ], [ -82.208286744181194, 35.813229932612046 ] ] ] } },
{ "type": "Feature", "properties": { "h3": "8844d91ab3fffff", "count": 1, "mean_rating": 4.5, "lat": 35.8383789, "lng": -82.219747, "category": "Hiking area" }, "geometry": { "type": "Polygon", "coordinates": [ [ [ -82.222003403669177, 35.84174431419769 ], [ -82.227547566996691, 35.840364785560844 ], [ -82.228603544487015, 35.83611029766174 ], [ -82.224116220732967, 35.833235500624482 ], [ -82.218572749537799, 35.834614690480926 ], [ -82.217515910013844, 35.838869016115197 ], [ -82.222003403669177, 35.84174431419769 ] ] ] } },
{ "type": "Feature", "properties": { "h3": "8844d95659fffff", "count": 1, "mean_rating": 4.9, "lat": 35.7745799, "lng": -82.0567144, "category": "Hiking area" }, "geometry": { "type": "Polygon", "coordinates": [ [ [ -82.051145904524574, 35.776432564317425 ], [ -82.056688699255901, 35.775062406010733 ], [ -82.057758467886529, 35.770813448171211 ], [ -82.053286299902283, 35.767934813853131 ], [ -82.047744199147942, 35.769304636282428 ], [ -82.04667357245097, 35.773553428867679 ], [ -82.051145904524574, 35.776432564317425 ] ] ] } },
{ "type": "Feature", "properties": { "h3": "8844d988a5fffff", "count": 1, "mean_rating": 4.8, "lat": 35.6999494, "lng": -82.3989056, "category": "Hiking area" }, "geometry": { "type": "Polygon", "coordinates": [ [ [ -82.395219145353209, 35.696658290388591 ], [ -82.390378931501488, 35.698481669904979 ], [ -82.390024322734931, 35.703168697798318 ], [ -82.394510312522385, 35.706032615532891 ], [ -82.399351059158946, 35.704209325316775 ], [ -82.399705283190528, 35.699522028069779 ], [ -82.395219145353209, 35.696658290388591 ] ] ] } },
{ "type": "Feature", "properties": { "h3": "8844d98995fffff", "count": 1, "mean_rating": 4.9, "lat": 35.704177, "lng": -82.3737129, "category": "Hiking area" }, "geometry": { "type": "Polygon", "coordinates": [ [ [ -82.371374656023661, 35.701085628135061 ], [ -82.366535235750305, 35.702907607056339 ], [ -82.366179618949005, 35.70759374948662 ], [ -82.370663806852718, 35.710458182503196 ], [ -82.375503760032586, 35.708636293142746 ], [ -82.375858992369501, 35.703949881208842 ], [ -82.371374656023661, 35.701085628135061 ] ] ] } },
{ "type": "Feature", "properties": { "h3": "8844d9899dfffff", "count": 1, "mean_rating": 4.9, "lat": 35.7032617, "lng": -82.3774134, "category": "Hiking area" }, "geometry": { "type": "Polygon", "coordinates": [ [ [ -82.376569363633209, 35.694576633770168 ], [ -82.371730033879913, 35.696399139167262 ], [ -82.371374656023661, 35.701085628135061 ], [ -82.375858992369501, 35.703949881208842 ], [ -82.380698854944796, 35.702127465303818 ], [ -82.381053848319567, 35.697440706836908 ], [ -82.376569363633209, 35.694576633770168 ] ] ] } },
{ "type": "Feature", "properties": { "h3": "8844d9c619fffff", "count": 1, "mean_rating": 4.9, "lat": 35.6431385, "lng": -82.2900309, "category": "Hiking area" }, "geometry": { "type": "Polygon", "coordinates": [ [ [ -82.291817920164959, 35.63546392215077 ], [ -82.28698497569836, 35.63728443915965 ], [ -82.286626281505278, 35.641969841007658 ], [ -82.291100914700479, 35.644834996260357 ], [ -82.295934391633551, 35.643014569506143 ], [ -82.29629270287225, 35.638328897248385 ], [ -82.291817920164959, 35.63546392215077 ] ] ] } },
{ "type": "Feature", "properties": { "h3": "8844d9c6c5fffff", "count": 1, "mean_rating": 4.7, "lat": 35.6594201, "lng": -82.2958471, "category": "Hiking area" }, "geometry": { "type": "Polygon", "coordinates": [ [ [ -82.294859269680543, 35.657070743695186 ], [ -82.290025171087478, 35.658890554202664 ], [ -82.289666527089082, 35.663575459096641 ], [ -82.294142364806817, 35.666440823765392 ], [ -82.298976996083027, 35.664621103527928 ], [ -82.299335256925644, 35.659935928355544 ], [ -82.294859269680543, 35.657070743695186 ] ] ] } }
]
}
